[{"OBJECT_NAME":"STARLINK-36170","OBJECT_ID":"2025-298J","EPOCH":"2026-03-09T22:52:08.345568","MEAN_MOTION":14.9914019,"ECCENTRICITY":0.00020247,"INCLINATION":70.0025,"RA_OF_ASC_NODE":13.9165,"ARG_OF_PERICENTER":262.148,"MEAN_ANOMALY":97.9449,"EPHEMERIS_TYPE":0,"CLASSIFICATION_TYPE":"U","NORAD_CAT_ID":67083,"ELEMENT_SET_NO":999,"REV_AT_EPOCH":1325,"BSTAR":0.00012309933,"MEAN_MOTION_DOT":1.407e-5,"MEAN_MOTION_DDOT":0},{"OBJECT_NAME":"COSMOS 2251 DEB","OBJECT_ID":"1993-036SU","EPOCH":"2026-03-09T16:21:38.417760","MEAN_MOTION":15.03076437,"ECCENTRICITY":0.00203067,"INCLINATION":74.0425,"RA_OF_ASC_NODE":271.4678,"ARG_OF_PERICENTER":270.4432,"MEAN_ANOMALY":89.443,"EPHEMERIS_TYPE":0,"CLASSIFICATION_TYPE":"U","NORAD_CAT_ID":34451,"ELEMENT_SET_NO":999,"REV_AT_EPOCH":89938,"BSTAR":0.0023702619,"MEAN_MOTION_DOT":0.00032214,"MEAN_MOTION_DDOT":0}]
